[{"OBJECT_NAME":"STARLINK-2178","OBJECT_ID":"2021-017AQ","EPOCH":"2023-06-05T03:19:21.800064","MEAN_MOTION":15.06400794,"ECCENTRICITY":0.0001648,"INCLINATION":53.0556,"RA_OF_ASC_NODE":69.1792,"ARG_OF_PERICENTER":68.3692,"MEAN_ANOMALY":291.7472,"EPHEMERIS_TYPE":0,"CLASSIFICATION_TYPE":"U","NORAD_CAT_ID":47760,"ELEMENT_SET_NO":999,"REV_AT_EPOCH":12494,"BSTAR":0.00082857,"MEAN_MOTION_DOT":0.00012082,"MEAN_MOTION_DDOT":0},{"OBJECT_NAME":"STARLINK-2179","OBJECT_ID":"2021-017AR","EPOCH":"2023-06-04T21:40:59.799360","MEAN_MOTION":15.0640129,"ECCENTRICITY":0.0001307,"INCLINATION":53.0554,"RA_OF_ASC_NODE":60.2342,"ARG_OF_PERICENTER":85.4823,"MEAN_ANOMALY":274.6316,"EPHEMERIS_TYPE":0,"CLASSIFICATION_TYPE":"U","NORAD_CAT_ID":47761,"ELEMENT_SET_NO":999,"REV_AT_EPOCH":12568,"BSTAR":0.0011236,"MEAN_MOTION_DOT":0.00016495,"MEAN_MOTION_DDOT":0},{"OBJECT_NAME":"STARLINK-2180","OBJECT_ID":"2021-017AS","EPOCH":"2023-06-04T19:07:44.392512","MEAN_MOTION":15.06393818,"ECCENTRICITY":0.0001292,"INCLINATION":53.055,"RA_OF_ASC_NODE":75.7229,"ARG_OF_PERICENTER":77.17,"MEAN_ANOMALY":282.9433,"EPHEMERIS_TYPE":0,"CLASSIFICATION_TYPE":"U","NORAD_CAT_ID":47762,"ELEMENT_SET_NO":999,"REV_AT_EPOCH":12547,"BSTAR":0.00041947,"MEAN_MOTION_DOT":5.971e-5,"MEAN_MOTION_DDOT":0},{"OBJECT_NAME":"STARLINK-2181","OBJECT_ID":"2021-017AT","EPOCH":"2023-06-04T19:30:17.004384","MEAN_MOTION":15.06396261,"ECCENTRICITY":0.0001142,"INCLINATION":53.0545,"RA_OF_ASC_NODE":65.647,"ARG_OF_PERICENTER":93.452,"MEAN_ANOMALY":266.6599,"EPHEMERIS_TYPE":0,"CLASSIFICATION_TYPE":"U","NORAD_CAT_ID":47763,"ELEMENT_SET_NO":999,"REV_AT_EPOCH":12559,"BSTAR":0.00042758,"MEAN_MOTION_DOT":6.092e-5,"MEAN_MOTION_DDOT":0},{"OBJECT_NAME":"STARLINK-2182","OBJECT_ID":"2021-017AU","EPOCH":"2023-06-05T04:19:44.046624","MEAN_MOTION":15.06406469,"ECCENTRICITY":0.0001026,"INCLINATION":53.0551,"RA_OF_ASC_NODE":73.9941,"ARG_OF_PERICENTER":88.2107,"MEAN_ANOMALY":271.9,"EPHEMERIS_TYPE":0,"CLASSIFICATION_TYPE":"U","NORAD_CAT_ID":47764,"ELEMENT_SET_NO":999,"REV_AT_EPOCH":12488,"BSTAR":0.00079849,"MEAN_MOTION_DOT":0.00011634,"MEAN_MOTION_DDOT":0},{"OBJECT_NAME":"STARLINK-2184","OBJECT_ID":"2021-017AW","EPOCH":"2023-06-04T19:11:40.501248","MEAN_MOTION":15.06402939,"ECCENTRICITY":0.0001325,"INCLINATION":53.0551,"RA_OF_ASC_NODE":75.6922,"ARG_OF_PERICENTER":76.2277,"MEAN_ANOMALY":283.8859,"EPHEMERIS_TYPE":0,"CLASSIFICATION_TYPE":"U","NORAD_CAT_ID":47766,"ELEMENT_SET_NO":999,"REV_AT_EPOCH":12544,"BSTAR":0.00057955,"MEAN_MOTION_DOT":8.362e-5,"MEAN_MOTION_DDOT":0},{"OBJECT_NAME":"STARLINK-2185","OBJECT_ID":"2021-017AX","EPOCH":"2023-06-05T03:47:13.958880","MEAN_MOTION":15.06413156,"ECCENTRICITY":0.0001173,"INCLINATION":53.0549,"RA_OF_ASC_NODE":59.0922,"ARG_OF_PERICENTER":85.3607,"MEAN_ANOMALY":274.7516,"EPHEMERIS_TYPE":0,"CLASSIFICATION_TYPE":"U","NORAD_CAT_ID":47767,"ELEMENT_SET_NO":999,"REV_AT_EPOCH":12509,"BSTAR":0.001029,"MEAN_MOTION_DOT":0.00015084,"MEAN_MOTION_DDOT":0},{"OBJECT_NAME":"STARLINK-2189","OBJECT_ID":"2021-017AY","EPOCH":"2023-06-05T01:35:16.209312","MEAN_MOTION":15.06406773,"ECCENTRICITY":0.0001211,"INCLINATION":53.0554,"RA_OF_ASC_NODE":74.9014,"ARG_OF_PERICENTER":88.5634,"MEAN_ANOMALY":271.5493,"EPHEMERIS_TYPE":0,"CLASSIFICATION_TYPE":"U","NORAD_CAT_ID":47768,"ELEMENT_SET_NO":999,"REV_AT_EPOCH":12486,"BSTAR":0.0008241,"MEAN_MOTION_DOT":0.00012017,"MEAN_MOTION_DDOT":0},{"OBJECT_NAME":"STARLINK-2192","OBJECT_ID":"2021-017AZ","EPOCH":"2023-06-04T22:36:43.692768","MEAN_MOTION":15.06385061,"ECCENTRICITY":0.0001093,"INCLINATION":53.0544,"RA_OF_ASC_NODE":40.0631,"ARG_OF_PERICENTER":121.7861,"MEAN_ANOMALY":238.3235,"EPHEMERIS_TYPE":0,"CLASSIFICATION_TYPE":"U","NORAD_CAT_ID":47769,"ELEMENT_SET_NO":999,"REV_AT_EPOCH":12533,"BSTAR":7.8204e-5,"MEAN_MOTION_DOT":8.83e-6,"MEAN_MOTION_DDOT":0},{"OBJECT_NAME":"STARLINK-2193","OBJECT_ID":"2021-017BA","EPOCH":"2023-06-04T21:12:28.250784","MEAN_MOTION":15.06396554,"ECCENTRICITY":0.0001401,"INCLINATION":53.0564,"RA_OF_ASC_NODE":55.3214,"ARG_OF_PERICENTER":82.2825,"MEAN_ANOMALY":277.8323,"EPHEMERIS_TYPE":0,"CLASSIFICATION_TYPE":"U","NORAD_CAT_ID":47770,"ELEMENT_SET_NO":999,"REV_AT_EPOCH":12577,"BSTAR":0.00037475,"MEAN_MOTION_DOT":5.304e-5,"MEAN_MOTION_DDOT":0},{"OBJECT_NAME":"STARLINK-2194","OBJECT_ID":"2021-017BB","EPOCH":"2023-06-04T21:28:23.513376","MEAN_MOTION":15.06382783,"ECCENTRICITY":0.0001203,"INCLINATION":53.0546,"RA_OF_ASC_NODE":55.2783,"ARG_OF_PERICENTER":112.8635,"MEAN_ANOMALY":247.2481,"EPHEMERIS_TYPE":0,"CLASSIFICATION_TYPE":"U","NORAD_CAT_ID":47771,"ELEMENT_SET_NO":999,"REV_AT_EPOCH":12578,"BSTAR":9.6667e-5,"MEAN_MOTION_DOT":1.158e-5,"MEAN_MOTION_DDOT":0},{"OBJECT_NAME":"STARLINK-2195","OBJECT_ID":"2021-017BC","EPOCH":"2023-06-04T18:02:02.884128","MEAN_MOTION":15.06399918,"ECCENTRICITY":7.7e-5,"INCLINATION":53.0536,"RA_OF_ASC_NODE":70.9159,"ARG_OF_PERICENTER":73.577,"MEAN_ANOMALY":286.5303,"EPHEMERIS_TYPE":0,"CLASSIFICATION_TYPE":"U","NORAD_CAT_ID":47772,"ELEMENT_SET_NO":999,"REV_AT_EPOCH":12552,"BSTAR":0.00079923,"MEAN_MOTION_DOT":0.00011643,"MEAN_MOTION_DDOT":0},{"OBJECT_NAME":"STARLINK-2196","OBJECT_ID":"2021-017BD","EPOCH":"2023-06-04T17:56:44.460384","MEAN_MOTION":15.06391867,"ECCENTRICITY":9.59e-5,"INCLINATION":53.0541,"RA_OF_ASC_NODE":70.9324,"ARG_OF_PERICENTER":72.706,"MEAN_ANOMALY":287.4034,"EPHEMERIS_TYPE":0,"CLASSIFICATION_TYPE":"U","NORAD_CAT_ID":47773,"ELEMENT_SET_NO":999,"REV_AT_EPOCH":12551,"BSTAR":0.0005183,"MEAN_MOTION_DOT":7.445e-5,"MEAN_MOTION_DDOT":0},{"OBJECT_NAME":"STARLINK-2197","OBJECT_ID":"2021-017BE","EPOCH":"2023-06-05T03:24:39.919680","MEAN_MOTION":15.06400228,"ECCENTRICITY":0.0001121,"INCLINATION":53.0542,"RA_OF_ASC_NODE":69.1627,"ARG_OF_PERICENTER":131.2982,"MEAN_ANOMALY":228.8104,"EPHEMERIS_TYPE":0,"CLASSIFICATION_TYPE":"U","NORAD_CAT_ID":47774,"ELEMENT_SET_NO":999,"REV_AT_EPOCH":12494,"BSTAR":0.00068707,"MEAN_MOTION_DOT":9.967e-5,"MEAN_MOTION_DDOT":0},{"OBJECT_NAME":"STARLINK-2198","OBJECT_ID":"2021-017BF","EPOCH":"2023-06-05T03:40:35.631552","MEAN_MOTION":15.06399377,"ECCENTRICITY":0.0001109,"INCLINATION":53.0546,"RA_OF_ASC_NODE":69.1154,"ARG_OF_PERICENTER":87.5422,"MEAN_ANOMALY":272.5694,"EPHEMERIS_TYPE":0,"CLASSIFICATION_TYPE":"U","NORAD_CAT_ID":47775,"ELEMENT_SET_NO":999,"REV_AT_EPOCH":12495,"BSTAR":0.00050107,"MEAN_MOTION_DOT":7.19e-5,"MEAN_MOTION_DDOT":0},{"OBJECT_NAME":"STARLINK-2209","OBJECT_ID":"2021-017BG","EPOCH":"2023-06-05T02:43:31.875168","MEAN_MOTION":15.06399185,"ECCENTRICITY":0.0001262,"INCLINATION":53.0547,"RA_OF_ASC_NODE":59.2897,"ARG_OF_PERICENTER":119.1873,"MEAN_ANOMALY":240.9242,"EPHEMERIS_TYPE":0,"CLASSIFICATION_TYPE":"U","NORAD_CAT_ID":47776,"ELEMENT_SET_NO":999,"REV_AT_EPOCH":12508,"BSTAR":0.00052809,"MEAN_MOTION_DOT":7.593e-5,"MEAN_MOTION_DDOT":0},{"OBJECT_NAME":"STARLINK-2210","OBJECT_ID":"2021-017BH","EPOCH":"2023-06-05T01:13:16.170240","MEAN_MOTION":15.06392135,"ECCENTRICITY":8.39e-5,"INCLINATION":53.0541,"RA_OF_ASC_NODE":59.5752,"ARG_OF_PERICENTER":107.4881,"MEAN_ANOMALY":252.62,"EPHEMERIS_TYPE":0,"CLASSIFICATION_TYPE":"U","NORAD_CAT_ID":47777,"ELEMENT_SET_NO":999,"REV_AT_EPOCH":12507,"BSTAR":0.0020229,"MEAN_MOTION_DOT":0.00029972,"MEAN_MOTION_DDOT":0},{"OBJECT_NAME":"STARLINK-2211","OBJECT_ID":"2021-017BJ","EPOCH":"2023-06-04T21:14:27.606336","MEAN_MOTION":15.06403677,"ECCENTRICITY":0.0001236,"INCLINATION":53.0551,"RA_OF_ASC_NODE":60.3182,"ARG_OF_PERICENTER":73.1264,"MEAN_ANOMALY":286.9861,"EPHEMERIS_TYPE":0,"CLASSIFICATION_TYPE":"U","NORAD_CAT_ID":47778,"ELEMENT_SET_NO":999,"REV_AT_EPOCH":12569,"BSTAR":0.00069866,"MEAN_MOTION_DOT":0.00010141,"MEAN_MOTION_DDOT":0},{"OBJECT_NAME":"STARLINK-2212","OBJECT_ID":"2021-017BK","EPOCH":"2023-06-04T23:55:51.155904","MEAN_MOTION":15.40258733,"ECCENTRICITY":0.0006455,"INCLINATION":53.0446,"RA_OF_ASC_NODE":18.1356,"ARG_OF_PERICENTER":101.4774,"MEAN_ANOMALY":258.6954,"EPHEMERIS_TYPE":0,"CLASSIFICATION_TYPE":"U","NORAD_CAT_ID":47779,"ELEMENT_SET_NO":999,"REV_AT_EPOCH":12566,"BSTAR":0.0031283,"MEAN_MOTION_DOT":0.00129658,"MEAN_MOTION_DDOT":0},{"OBJECT_NAME":"STARLINK-2213","OBJECT_ID":"2021-017BL","EPOCH":"2023-06-05T02:38:13.369344","MEAN_MOTION":15.06406626,"ECCENTRICITY":0.0001117,"INCLINATION":53.0548,"RA_OF_ASC_NODE":59.3088,"ARG_OF_PERICENTER":116.4358,"MEAN_ANOMALY":243.6746,"EPHEMERIS_TYPE":0,"CLASSIFICATION_TYPE":"U","NORAD_CAT_ID":47780,"ELEMENT_SET_NO":999,"REV_AT_EPOCH":12509,"BSTAR":0.00074174,"MEAN_MOTION_DOT":0.00010786,"MEAN_MOTION_DDOT":0},{"OBJECT_NAME":"STARLINK-2223","OBJECT_ID":"2021-017BM","EPOCH":"2023-06-04T21:03:50.774400","MEAN_MOTION":15.06404519,"ECCENTRICITY":0.0001201,"INCLINATION":53.055,"RA_OF_ASC_NODE":60.3535,"ARG_OF_PERICENTER":71.7556,"MEAN_ANOMALY":288.3563,"EPHEMERIS_TYPE":0,"CLASSIFICATION_TYPE":"U","NORAD_CAT_ID":47781,"ELEMENT_SET_NO":999,"REV_AT_EPOCH":12568,"BSTAR":0.0013402,"MEAN_MOTION_DOT":0.00019739,"MEAN_MOTION_DDOT":0},{"OBJECT_NAME":"STARLINK-2257","OBJECT_ID":"2021-018A","EPOCH":"2023-06-04T19:54:49.215456","MEAN_MOTION":15.06394141,"ECCENTRICITY":0.0001631,"INCLINATION":53.0523,"RA_OF_ASC_NODE":100.5632,"ARG_OF_PERICENTER":129.7437,"MEAN_ANOMALY":230.3696,"EPHEMERIS_TYPE":0,"CLASSIFICATION_TYPE":"U","NORAD_CAT_ID":47787,"ELEMENT_SET_NO":999,"REV_AT_EPOCH":12453,"BSTAR":0.00018033,"MEAN_MOTION_DOT":2.405e-5,"MEAN_MOTION_DDOT":0},{"OBJECT_NAME":"STARLINK-2314","OBJECT_ID":"2021-018B","EPOCH":"2023-06-05T04:09:07.288992","MEAN_MOTION":15.0640433,"ECCENTRICITY":0.0001312,"INCLINATION":53.0543,"RA_OF_ASC_NODE":74.0225,"ARG_OF_PERICENTER":81.0781,"MEAN_ANOMALY":279.0357,"EPHEMERIS_TYPE":0,"CLASSIFICATION_TYPE":"U","NORAD_CAT_ID":47788,"ELEMENT_SET_NO":999,"REV_AT_EPOCH":12460,"BSTAR":0.00061406,"MEAN_MOTION_DOT":8.878e-5,"MEAN_MOTION_DDOT":0}]
